STARLINK-2022           
1 47643U 21012Z   24132.50157069  .00032032  00000+0  21559-2 0  9998
2 47643  53.0522 166.7385 0001352  83.8365 276.2777 15.06463305179708
